GALAXY 15 (G-15)        
1 28884U 05041A   26167.71607684 -.00000267  00000+0  00000+0 0  9995
2 28884   3.5359  77.2731 0014354 137.8081 105.3728  0.98943614 75438
